ONEWEB-0098             
1 45442U 20020U   25324.67593563 -.00000243  00000+0 -72050-3 0  9990
2 45442  87.8872  62.5832 0001701 101.3626 258.7693 13.11415718275315
ONEWEB-0055             
1 45443U 20020V   25324.65898877  .00000420  00000+0  11490-2 0  9990
2 45443  87.8869  62.5873 0001698 101.5824 258.5494 13.11414619275286
ONEWEB-0093             
1 45444U 20020W   25324.71084001  .00000071  00000+0  16339-3 0  9994
2 45444  87.8873  62.5635 0001669 118.4931 241.6365 13.11417810275356
ONEWEB-0029             
1 45445U 20020X   25324.57421437  .00000548  00000+0  15101-2 0  9991
2 45445  87.8872  62.6033 0001707 107.4017 252.7298 13.11418721275311
ONEWEB-0068             
1 45446U 20020Y   25324.71056635  .00000029  00000+0  45111-4 0  9992
2 45446  87.8876  62.5653 0001764 108.4672 251.6647 13.11417176275278
ONEWEB-0046             
1 45447U 20020Z   25324.54962353 -.00000161  00000+0 -49058-3 0  9999
2 45447  87.8873  62.6053 0001486 110.5310 249.5978 13.11418322275261
ONEWEB-0063             
1 45448U 20020AA  25324.73105188  .00000581  00000+0  16036-2 0  9999
2 45448  87.8871  62.5670 0001414 103.5240 256.6046 13.11416013275371
ONEWEB-0019             
1 45449U 20020AB  25324.55215608 -.00000339  00000+0 -99185-3 0  9999
2 45449  87.8857  62.6146 0001777 102.8181 257.3146 13.11418929275190
